
# Worst residual: 4.40 km
# MJD 59545.000000 (2021 Nov 27  0:00)
2015-005B = NORAD 40385
1 40385U 15005B   21331.49918769  .00000000  00000-0  00000-0 0 10895
2 40385 028.4684 067.0991 7602098 244.5338 145.2833 01.11107631    04

# Worst residual: 4.30 km
# MJD 59546.000000 (2021 Nov 28  0:00)
2015-005B = NORAD 40385
1 40385U 15005B   21332.49918769  .00000000  00000-0  00000-0 0 10896
2 40385 028.4684 067.0098 7601760 244.6816 185.2440 01.11106803    07

# Worst residual: 5.45 km
# MJD 59547.000000 (2021 Nov 29  0:00)
2015-005B = NORAD 40385
1 40385U 15005B   21333.49918769  .00000000  00000-0  00000-0 0 10897
2 40385 028.4675 066.9134 7601441 244.8336 225.2062 01.11106987    09

# Worst residual: 5.81 km
# MJD 59548.000000 (2021 Nov 30  0:00)
2015-005B = NORAD 40385
1 40385U 15005B   21334.49918769  .00000000  00000-0  00000-0 0 10898
2 40385 028.4687 066.8240 7601382 244.9781 265.1736 01.11108439    03

# Worst residual: 5.32 km
# MJD 59549.000000 (2021 Dec  1  0:00)
2015-005B = NORAD 40385
1 40385U 15005B   21335.49918769  .00000000  00000-0  00000-0 0 10899
2 40385 028.4704 066.7397 7601472 245.1168 305.1423 01.11110357    07

# Worst residual: 4.99 km
# MJD 59550.000000 (2021 Dec  2  0:00)
2015-005B = NORAD 40385
1 40385U 15005B   21336.49918769  .00000000  00000-0  00000-0 0 10890
2 40385 028.4716 066.6533 7601762 245.2587 345.1090 01.11113687    02

# Worst residual: 5.30 km
# MJD 59551.000000 (2021 Dec  3  0:00)
2015-005B = NORAD 40385
1 40385U 15005B   21337.49918769  .00000000  00000-0  00000-0 0 10891
2 40385 028.4723 066.5660 7602243 245.4013 025.0731 01.11114590    01

# Worst residual: 6.02 km
# MJD 59552.000000 (2021 Dec  4  0:00)
2015-005B = NORAD 40385
1 40385U 15005B   21338.49918769  .00000000  00000-0  00000-0 0 10892
2 40385 028.4733 066.4801 7602748 245.5452 065.0314 01.11110184    02

# Worst residual: 5.88 km
# MJD 59553.000000 (2021 Dec  5  0:00)
2015-005B = NORAD 40385
1 40385U 15005B   21339.49918769  .00000000  00000-0  00000-0 0 10893
2 40385 028.4740 066.3903 7603134 245.6955 104.9852 01.11107016    01

# Worst residual: 5.27 km
# MJD 59554.000000 (2021 Dec  6  0:00)
2015-005B = NORAD 40385
1 40385U 15005B   21340.49918769  .00000000  00000-0  00000-0 0 10895
2 40385 028.4751 066.3032 7603224 245.8433 144.9408 01.11104945    08

# Worst residual: 4.65 km
# MJD 59555.000000 (2021 Dec  7  0:00)
2015-005B = NORAD 40385
1 40385U 15005B   21341.49918769  .00000000  00000-0  00000-0 0 10896
2 40385 028.4748 066.2133 7603213 245.9912 184.9028 01.11105676    00

# Worst residual: 5.01 km
# MJD 59556.000000 (2021 Dec  8  0:00)
2015-005B = NORAD 40385
1 40385U 15005B   21342.49918769  .00000000  00000-0  00000-0 0 10897
2 40385 028.4740 066.1192 7603297 246.1425 224.8645 01.11106531    00

# Worst residual: 4.59 km
# MJD 59557.000000 (2021 Dec  9  0:00)
2015-005B = NORAD 40385
1 40385U 15005B   21343.49918769  .00000000  00000-0  00000-0 0 10898
2 40385 028.4750 066.0333 7603436 246.2858 264.8312 01.11107729    08

# Worst residual: 4.13 km
# MJD 59558.000000 (2021 Dec 10  0:00)
2015-005B = NORAD 40385
1 40385U 15005B   21344.49918769  .00000000  00000-0  00000-0 0 10899
2 40385 028.4766 065.9497 7603549 246.4263 304.7985 01.11109735    00

# Worst residual: 4.45 km
# MJD 59559.000000 (2021 Dec 11  0:00)
2015-005B = NORAD 40385
1 40385U 15005B   21345.49918769  .00000000  00000-0  00000-0 0 10890
2 40385 028.4775 065.8650 7603715 246.5681 344.7664 01.11112707    01

# Worst residual: 4.15 km
# MJD 59560.000000 (2021 Dec 12  0:00)
2015-005B = NORAD 40385
1 40385U 15005B   21346.49918769  .00000000  00000-0  00000-0 0 10891
2 40385 028.4780 065.7784 7603849 246.7107 024.7345 01.11114197    03

# Worst residual: 5.36 km
# MJD 59561.000000 (2021 Dec 13  0:00)
2015-005B = NORAD 40385
1 40385U 15005B   21347.49918769  .00000000  00000-0  00000-0 0 10892
2 40385 028.4784 065.6898 7604016 246.8555 064.7009 01.11112543    01

# Worst residual: 5.44 km
# MJD 59562.000000 (2021 Dec 14  0:00)
2015-005B = NORAD 40385
1 40385U 15005B   21348.49918769  .00000000  00000-0  00000-0 0 10893
2 40385 028.4793 065.6007 7604122 247.0013 104.6663 01.11110161    07

# Worst residual: 5.67 km
# MJD 59563.000000 (2021 Dec 15  0:00)
2015-005B = NORAD 40385
1 40385U 15005B   21349.49918769  .00000000  00000-0  00000-0 0 10894
2 40385 028.4804 065.5126 7604130 247.1458 144.6343 01.11108974    02

# Worst residual: 5.59 km
# MJD 59564.000000 (2021 Dec 16  0:00)
2015-005B = NORAD 40385
1 40385U 15005B   21350.49918769  .00000000  00000-0  00000-0 0 10896
2 40385 028.4807 065.4232 7604078 247.2902 184.6051 01.11108664    04

# Worst residual: 4.87 km
# MJD 59565.000000 (2021 Dec 17  0:00)
2015-005B = NORAD 40385
1 40385U 15005B   21351.49918769  .00000000  00000-0  00000-0 0 10897
2 40385 028.4804 065.3284 7604406 247.4398 224.5744 01.11109396    09

# Worst residual: 5.17 km
# MJD 59566.000000 (2021 Dec 18  0:00)
2015-005B = NORAD 40385
1 40385U 15005B   21352.49918769  .00000000  00000-0  00000-0 0 10898
2 40385 028.4818 065.2408 7604753 247.5832 264.5451 01.11110183    05

# Worst residual: 5.15 km
# MJD 59567.000000 (2021 Dec 19  0:00)
2015-005B = NORAD 40385
1 40385U 15005B   21353.49918769  .00000000  00000-0  00000-0 0 10899
2 40385 028.4835 065.1560 7605150 247.7245 304.5154 01.11111801    07

# Worst residual: 5.22 km
# MJD 59568.000000 (2021 Dec 20  0:00)
2015-005B = NORAD 40385
1 40385U 15005B   21354.49918769  .00000000  00000-0  00000-0 0 10890
2 40385 028.4846 065.0703 7605573 247.8673 344.4835 01.11113383    08

# Worst residual: 5.55 km
# MJD 59569.000000 (2021 Dec 21  0:00)
2015-005B = NORAD 40385
1 40385U 15005B   21355.49918769  .00000000  00000-0  00000-0 0 10891
2 40385 028.4852 064.9822 7605985 248.0135 024.4477 01.11113515    02

# Worst residual: 5.84 km
# MJD 59570.000000 (2021 Dec 22  0:00)
2015-005B = NORAD 40385
1 40385U 15005B   21356.49918769  .00000000  00000-0  00000-0 0 10892
2 40385 028.4855 064.8937 7606301 248.1616 064.4064 01.11110983    01

# Worst residual: 5.38 km
# MJD 59571.000000 (2021 Dec 23  0:00)
2015-005B = NORAD 40385
1 40385U 15005B   21357.49918769  .00000000  00000-0  00000-0 0 10893
2 40385 028.4862 064.8002 7606384 248.3163 104.3621 01.11108325    02

# Worst residual: 4.47 km
# MJD 59572.000000 (2021 Dec 24  0:00)
2015-005B = NORAD 40385
1 40385U 15005B   21358.49918769  .00000000  00000-0  00000-0 0 10894
2 40385 028.4871 064.7090 7606193 248.4679 144.3200 01.11107458    02

# Worst residual: 4.39 km
# MJD 59573.000000 (2021 Dec 25  0:00)
2015-005B = NORAD 40385
1 40385U 15005B   21359.49918769  .00000000  00000-0  00000-0 0 10895
2 40385 028.4866 064.6140 7605849 248.6209 184.2813 01.11106952    00

# Worst residual: 4.88 km
# MJD 59574.000000 (2021 Dec 26  0:00)
2015-005B = NORAD 40385
1 40385U 15005B   21360.49918769  .00000000  00000-0  00000-0 0 10897
2 40385 028.4856 064.5142 7605526 248.7770 224.2433 01.11106483    08
